{
  "type": "FeatureCollection",
  "features": [
    {
      "type": "Feature",
      "properties": {
        "norad_id": 40799,
        "name": "COSMOS 2251 DEB",
        "group": "cosmos-2251-debris",
        "lat": -55.214365879379706,
        "lon": 68.2502788364492,
        "alt_km": 513.7954518542074,
        "timestamp": "2025-12-15T11:38:37.550539+00:00",
        "meta_object_name": "COSMOS 2251 DEB",
        "meta_object_id": "1993-036BWC",
        "meta_epoch": "2025-12-14T13:26:27.326400",
        "meta_mean_motion": 14.96681881,
        "meta_eccentricity": 0.01191991,
        "meta_inclination": 73.9262,
        "meta_ra_of_asc_node": 94.6576,
        "meta_arg_of_pericenter": 336.1712,
        "meta_mean_anomaly": 23.3978,
        "meta_ephemeris_type": 0,
        "meta_classification_type": "U",
        "meta_norad_cat_id": 40799,
        "meta_element_set_no": 999,
        "meta_rev_at_epoch": 50004,
        "meta_bstar": 0.00030356389,
        "meta_mean_motion_dot": 3.959e-05,
        "meta_mean_motion_ddot": 0,
        "tle_line1": "1 40799U 93036BWC 25348.56003850  .00003959  00000+0  30356-3 0  9994",
        "tle_line2": "2 40799  73.9262  94.6576 0119199 336.1712  23.3978 14.96681881500043"
      },
      "geometry": {
        "type": "Point",
        "coordinates": [
          68.2502788364492,
          -55.214365879379706
        ]
      }
    },
    {
      "type": "Feature",
      "properties": {
        "norad_id": 40802,
        "name": "COSMOS 2251 DEB",
        "group": "cosmos-2251-debris",
        "lat": 19.116856702037563,
        "lon": -38.06584103481258,
        "alt_km": 633.1033471504479,
        "timestamp": "2025-12-15T11:38:37.550550+00:00",
        "meta_object_name": "COSMOS 2251 DEB",
        "meta_object_id": "1993-036BWF",
        "meta_epoch": "2025-12-14T04:02:34.779840",
        "meta_mean_motion": 14.7763135,
        "meta_eccentricity": 0.00631025,
        "meta_inclination": 74.0398,
        "meta_ra_of_asc_node": 150.2093,
        "meta_arg_of_pericenter": 248.6873,
        "meta_mean_anomaly": 110.7559,
        "meta_ephemeris_type": 0,
        "meta_classification_type": "U",
        "meta_norad_cat_id": 40802,
        "meta_element_set_no": 999,
        "meta_rev_at_epoch": 64430,
        "meta_bstar": 0.00084362537,
        "meta_mean_motion_dot": 6.208e-05,
        "meta_mean_motion_ddot": 0,
        "tle_line1": "1 40802U 93036BWF 25348.16845810  .00006208  00000+0  84363-3 0  9992",
        "tle_line2": "2 40802  74.0398 150.2093 0063102 248.6873 110.7559 14.77631350644309"
      },
      "geometry": {
        "type": "Point",
        "coordinates": [
          -38.06584103481258,
          19.116856702037563
        ]
      }
    },
    {
      "type": "Feature",
      "properties": {
        "norad_id": 40803,
        "name": "COSMOS 2251 DEB",
        "group": "cosmos-2251-debris",
        "lat": 66.13430667528638,
        "lon": -173.66877349020095,
        "alt_km": 735.8868390063335,
        "timestamp": "2025-12-15T11:38:37.550560+00:00",
        "meta_object_name": "COSMOS 2251 DEB",
        "meta_object_id": "1993-036BWG",
        "meta_epoch": "2025-12-05T22:55:29.451072",
        "meta_mean_motion": 14.51792027,
        "meta_eccentricity": 0.00362816,
        "meta_inclination": 74.0122,
        "meta_ra_of_asc_node": 64.6912,
        "meta_arg_of_pericenter": 281.8159,
        "meta_mean_anomaly": 77.8934,
        "meta_ephemeris_type": 0,
        "meta_classification_type": "U",
        "meta_norad_cat_id": 40803,
        "meta_element_set_no": 999,
        "meta_rev_at_epoch": 58654,
        "meta_bstar": 0.00062935795,
        "meta_mean_motion_dot": 2.525e-05,
        "meta_mean_motion_ddot": 0,
        "tle_line1": "1 40803U 93036BWG 25339.95520198  .00002525  00000+0  62936-3 0  9999",
        "tle_line2": "2 40803  74.0122  64.6912 0036281 281.8159  77.8934 14.51792027586549"
      },
      "geometry": {
        "type": "Point",
        "coordinates": [
          -173.66877349020095,
          66.13430667528638
        ]
      }
    },
    {
      "type": "Feature",
      "properties": {
        "norad_id": 40808,
        "name": "COSMOS 2251 DEB",
        "group": "cosmos-2251-debris",
        "lat": 2.058631625256246,
        "lon": -40.41767344938239,
        "alt_km": 664.9334221665958,
        "timestamp": "2025-12-15T11:38:37.550570+00:00",
        "meta_object_name": "COSMOS 2251 DEB",
        "meta_object_id": "1993-036BWM",
        "meta_epoch": "2025-12-14T10:26:23.947296",
        "meta_mean_motion": 14.67521504,
        "meta_eccentricity": 0.00090305,
        "meta_inclination": 74.0408,
        "meta_ra_of_asc_node": 142.1983,
        "meta_arg_of_pericenter": 179.2198,
        "meta_mean_anomaly": 212.7135,
        "meta_ephemeris_type": 0,
        "meta_classification_type": "U",
        "meta_norad_cat_id": 40808,
        "meta_element_set_no": 999,
        "meta_rev_at_epoch": 63644,
        "meta_bstar": 0.0018628383,
        "meta_mean_motion_dot": 0.00010555,
        "meta_mean_motion_ddot": 0,
        "tle_line1": "1 40808U 93036BWM 25348.43499939  .00010555  00000+0  18628-2 0  9995",
        "tle_line2": "2 40808  74.0408 142.1983 0009030 179.2198 212.7135 14.67521504636441"
      },
      "geometry": {
        "type": "Point",
        "coordinates": [
          -40.41767344938239,
          2.058631625256246
        ]
      }
    },
    {
      "type": "Feature",
      "properties": {
        "norad_id": 40810,
        "name": "COSMOS 2251 DEB",
        "group": "cosmos-2251-debris",
        "lat": 8.076814621822965,
        "lon": 71.83698060875689,
        "alt_km": 709.7923673317346,
        "timestamp": "2025-12-15T11:38:37.550580+00:00",
        "meta_object_name": "COSMOS 2251 DEB",
        "meta_object_id": "1993-036BWP",
        "meta_epoch": "2025-12-13T23:23:40.805376",
        "meta_mean_motion": 14.58732029,
        "meta_eccentricity": 0.00184639,
        "meta_inclination": 74.0366,
        "meta_ra_of_asc_node": 72.3839,
        "meta_arg_of_pericenter": 224.0736,
        "meta_mean_anomaly": 135.8958,
        "meta_ephemeris_type": 0,
        "meta_classification_type": "U",
        "meta_norad_cat_id": 40810,
        "meta_element_set_no": 999,
        "meta_rev_at_epoch": 61701,
        "meta_bstar": 0.00089103358,
        "meta_mean_motion_dot": 4.142e-05,
        "meta_mean_motion_ddot": 0,
        "tle_line1": "1 40810U 93036BWP 25347.97477784  .00004142  00000+0  89103-3 0  9992",
        "tle_line2": "2 40810  74.0366  72.3839 0018463 224.0736 135.8958 14.58732029617014"
      },
      "geometry": {
        "type": "Point",
        "coordinates": [
          71.83698060875689,
          8.076814621822965
        ]
      }
    },
    {
      "type": "Feature",
      "properties": {
        "norad_id": 46271,
        "name": "COSMOS 2251 DEB",
        "group": "cosmos-2251-debris",
        "lat": 4.082770877600998,
        "lon": -108.1175563885245,
        "alt_km": 695.8923676291215,
        "timestamp": "2025-12-15T11:38:37.550590+00:00",
        "meta_object_name": "COSMOS 2251 DEB",
        "meta_object_id": "1993-036BWT",
        "meta_epoch": "2025-12-13T12:31:04.945728",
        "meta_mean_motion": 14.51432148,
        "meta_eccentricity": 0.0040256,
        "meta_inclination": 74.0483,
        "meta_ra_of_asc_node": 76.7438,
        "meta_arg_of_pericenter": 198.1951,
        "meta_mean_anomaly": 161.7773,
        "meta_ephemeris_type": 0,
        "meta_classification_type": "U",
        "meta_norad_cat_id": 46271,
        "meta_element_set_no": 999,
        "meta_rev_at_epoch": 84653,
        "meta_bstar": 0.00056149048,
        "meta_mean_motion_dot": 2.237e-05,
        "meta_mean_motion_ddot": 0,
        "tle_line1": "1 46271U 93036BWT 25347.52158502  .00002237  00000+0  56149-3 0  9991",
        "tle_line2": "2 46271  74.0483  76.7438 0040256 198.1951 161.7773 14.51432148846535"
      },
      "geometry": {
        "type": "Point",
        "coordinates": [
          -108.1175563885245,
          4.082770877600998
        ]
      }
    },
    {
      "type": "Feature",
      "properties": {
        "norad_id": 46430,
        "name": "COSMOS 2251 DEB",
        "group": "cosmos-2251-debris",
        "lat": -55.5758175564808,
        "lon": -163.95666138272838,
        "alt_km": 665.0656131781616,
        "timestamp": "2025-12-15T11:38:37.550600+00:00",
        "meta_object_name": "COSMOS 2251 DEB",
        "meta_object_id": "1993-036BWU",
        "meta_epoch": "2025-12-12T18:01:09.115680",
        "meta_mean_motion": 14.51304268,
        "meta_eccentricity": 0.01036453,
        "meta_inclination": 73.9144,
        "meta_ra_of_asc_node": 356.326,
        "meta_arg_of_pericenter": 276.5668,
        "meta_mean_anomaly": 82.3702,
        "meta_ephemeris_type": 0,
        "meta_classification_type": "U",
        "meta_norad_cat_id": 46430,
        "meta_element_set_no": 999,
        "meta_rev_at_epoch": 79683,
        "meta_bstar": 0.0031599798,
        "meta_mean_motion_dot": 0.00013483,
        "meta_mean_motion_ddot": 0,
        "tle_line1": "1 46430U 93036BWU 25346.75079995  .00013483  00000+0  31600-2 0  9999",
        "tle_line2": "2 46430  73.9144 356.3260 0103645 276.5668  82.3702 14.51304268796830"
      },
      "geometry": {
        "type": "Point",
        "coordinates": [
          -163.95666138272838,
          -55.5758175564808
        ]
      }
    }
  ]
}